CCSDS_OMM_VERS = 2.0
CREATION_DATE  = 
ORIGINATOR     = 

OBJECT_NAME    = SL-14 R/B
OBJECT_ID      = 1986-046B
CENTER_NAME    = EARTH
REF_FRAME      = TEME
TIME_SYSTEM    = UTC
MEAN_ELEMENT_THEORY = SGP/SGP4

EPOCH          = 2026-02-04T06:20:27.775104
MEAN_MOTION    = 14.85557086
ECCENTRICITY   = .0022569
INCLINATION    = 82.4821
RA_OF_ASC_NODE = 111.7678
ARG_OF_PERICENTER = 342.1883
MEAN_ANOMALY   = 17.8540

EPHEMERIS_TYPE = 0
CLASSIFICATION_TYPE = U
NORAD_CAT_ID   = 16792
ELEMENT_SET_NO = 999
REV_AT_EPOCH   = 12144
BSTAR          = .61413E-4
MEAN_MOTION_DOT = .557E-5
MEAN_MOTION_DDOT = 0

CCSDS_OMM_VERS = 2.0
CREATION_DATE  = 
ORIGINATOR     = 

OBJECT_NAME    = SL-14 R/B
OBJECT_ID      = 1986-055B
CENTER_NAME    = EARTH
REF_FRAME      = TEME
TIME_SYSTEM    = UTC
MEAN_ELEMENT_THEORY = SGP/SGP4

EPOCH          = 2026-02-04T09:28:56.456832
MEAN_MOTION    = 14.85605839
ECCENTRICITY   = .0020406
INCLINATION    = 82.5230
RA_OF_ASC_NODE = 157.9572
ARG_OF_PERICENTER = 83.1223
MEAN_ANOMALY   = 335.4254

EPHEMERIS_TYPE = 0
CLASSIFICATION_TYPE = U
NORAD_CAT_ID   = 16882
ELEMENT_SET_NO = 999
REV_AT_EPOCH   = 11442
BSTAR          = .73348E-4
MEAN_MOTION_DOT = .661E-5
MEAN_MOTION_DDOT = 0

CCSDS_OMM_VERS = 2.0
CREATION_DATE  = 
ORIGINATOR     = 

OBJECT_NAME    = AJISAI (EGS)
OBJECT_ID      = 1986-061A
CENTER_NAME    = EARTH
REF_FRAME      = TEME
TIME_SYSTEM    = UTC
MEAN_ELEMENT_THEORY = SGP/SGP4

EPOCH          = 2026-02-04T11:05:44.945664
MEAN_MOTION    = 12.44515318
ECCENTRICITY   = .0011246
INCLINATION    = 50.0065
RA_OF_ASC_NODE = 195.5215
ARG_OF_PERICENTER = 201.4478
MEAN_ANOMALY   = 200.5780

EPHEMERIS_TYPE = 0
CLASSIFICATION_TYPE = U
NORAD_CAT_ID   = 16908
ELEMENT_SET_NO = 999
REV_AT_EPOCH   = 46386
BSTAR          = -.9683E-4
MEAN_MOTION_DOT = -.111E-5
MEAN_MOTION_DDOT = 0

CCSDS_OMM_VERS = 2.0
CREATION_DATE  = 
ORIGINATOR     = 

OBJECT_NAME    = COSMOS 1812
OBJECT_ID      = 1987-003A
CENTER_NAME    = EARTH
REF_FRAME      = TEME
TIME_SYSTEM    = UTC
MEAN_ELEMENT_THEORY = SGP/SGP4

EPOCH          = 2026-02-04T12:48:10.770336
MEAN_MOTION    = 15.92641320
ECCENTRICITY   = .0000862
INCLINATION    = 82.4771
RA_OF_ASC_NODE = 233.1409
ARG_OF_PERICENTER = 339.7896
MEAN_ANOMALY   = 20.3343

EPHEMERIS_TYPE = 0
CLASSIFICATION_TYPE = U
NORAD_CAT_ID   = 17295
ELEMENT_SET_NO = 999
REV_AT_EPOCH   = 13916
BSTAR          = .74281E-3
MEAN_MOTION_DOT = .252912E-2
MEAN_MOTION_DDOT = .22575E-4

CCSDS_OMM_VERS = 2.0
CREATION_DATE  = 
ORIGINATOR     = 

OBJECT_NAME    = SL-14 R/B
OBJECT_ID      = 1987-024B
CENTER_NAME    = EARTH
REF_FRAME      = TEME
TIME_SYSTEM    = UTC
MEAN_ELEMENT_THEORY = SGP/SGP4

EPOCH          = 2026-02-04T07:26:06.612864
MEAN_MOTION    = 14.86098917
ECCENTRICITY   = .0018581
INCLINATION    = 82.5296
RA_OF_ASC_NODE = 124.1346
ARG_OF_PERICENTER = 16.0876
MEAN_ANOMALY   = 344.0926

EPHEMERIS_TYPE = 0
CLASSIFICATION_TYPE = U
NORAD_CAT_ID   = 17567
ELEMENT_SET_NO = 999
REV_AT_EPOCH   = 8317
BSTAR          = .65184E-4
MEAN_MOTION_DOT = .597E-5
MEAN_MOTION_DDOT = 0

CCSDS_OMM_VERS = 2.0
CREATION_DATE  = 
ORIGINATOR     = 

OBJECT_NAME    = COSMOS 1833
OBJECT_ID      = 1987-027A
CENTER_NAME    = EARTH
REF_FRAME      = TEME
TIME_SYSTEM    = UTC
MEAN_ELEMENT_THEORY = SGP/SGP4

EPOCH          = 2026-02-04T10:44:34.742976
MEAN_MOTION    = 14.13055416
ECCENTRICITY   = .0024835
INCLINATION    = 70.9207
RA_OF_ASC_NODE = 35.8820
ARG_OF_PERICENTER = 258.8861
MEAN_ANOMALY   = 100.9468

EPHEMERIS_TYPE = 0
CLASSIFICATION_TYPE = U
NORAD_CAT_ID   = 17589
ELEMENT_SET_NO = 999
REV_AT_EPOCH   = 562
BSTAR          = .75148E-4
MEAN_MOTION_DOT = .93E-6
MEAN_MOTION_DDOT = 0

CCSDS_OMM_VERS = 2.0
CREATION_DATE  = 
ORIGINATOR     = 

OBJECT_NAME    = SL-16 R/B
OBJECT_ID      = 1987-027B
CENTER_NAME    = EARTH
REF_FRAME      = TEME
TIME_SYSTEM    = UTC
MEAN_ELEMENT_THEORY = SGP/SGP4

EPOCH          = 2026-02-04T07:20:20.934240
MEAN_MOTION    = 14.17163746
ECCENTRICITY   = .0005334
INCLINATION    = 71.0049
RA_OF_ASC_NODE = 346.8407
ARG_OF_PERICENTER = 199.0594
MEAN_ANOMALY   = 161.0331

EPHEMERIS_TYPE = 0
CLASSIFICATION_TYPE = U
NORAD_CAT_ID   = 17590
ELEMENT_SET_NO = 999
REV_AT_EPOCH   = 1061
BSTAR          = .22583E-4
MEAN_MOTION_DOT = -.2E-7
MEAN_MOTION_DDOT = 0

CCSDS_OMM_VERS = 2.0
CREATION_DATE  = 
ORIGINATOR     = 

OBJECT_NAME    = SL-14 R/B
OBJECT_ID      = 1987-038B
CENTER_NAME    = EARTH
REF_FRAME      = TEME
TIME_SYSTEM    = UTC
MEAN_ELEMENT_THEORY = SGP/SGP4

EPOCH          = 2026-02-04T06:54:05.157216
MEAN_MOTION    = 14.85334473
ECCENTRICITY   = .0017692
INCLINATION    = 82.5043
RA_OF_ASC_NODE = 328.2652
ARG_OF_PERICENTER = 275.8959
MEAN_ANOMALY   = 84.0240

EPHEMERIS_TYPE = 0
CLASSIFICATION_TYPE = U
NORAD_CAT_ID   = 17912
ELEMENT_SET_NO = 999
REV_AT_EPOCH   = 7427
BSTAR          = .76527E-4
MEAN_MOTION_DOT = .683E-5
MEAN_MOTION_DDOT = 0

CCSDS_OMM_VERS = 2.0
CREATION_DATE  = 
ORIGINATOR     = 

OBJECT_NAME    = COSMOS 1844
OBJECT_ID      = 1987-041A
CENTER_NAME    = EARTH
REF_FRAME      = TEME
TIME_SYSTEM    = UTC
MEAN_ELEMENT_THEORY = SGP/SGP4

EPOCH          = 2026-02-04T12:25:49.909728
MEAN_MOTION    = 14.14537140
ECCENTRICITY   = .0028747
INCLINATION    = 70.8980
RA_OF_ASC_NODE = 104.1469
ARG_OF_PERICENTER = 71.2653
MEAN_ANOMALY   = 289.1584

EPHEMERIS_TYPE = 0
CLASSIFICATION_TYPE = U
NORAD_CAT_ID   = 17973
ELEMENT_SET_NO = 999
REV_AT_EPOCH   = 99889
BSTAR          = .16742E-3
MEAN_MOTION_DOT = .274E-5
MEAN_MOTION_DDOT = 0

CCSDS_OMM_VERS = 2.0
CREATION_DATE  = 
ORIGINATOR     = 

OBJECT_NAME    = SL-14 R/B
OBJECT_ID      = 1987-055B
CENTER_NAME    = EARTH
REF_FRAME      = TEME
TIME_SYSTEM    = UTC
MEAN_ELEMENT_THEORY = SGP/SGP4

EPOCH          = 2026-02-04T11:20:11.489280
MEAN_MOTION    = 14.85587135
ECCENTRICITY   = .0022053
INCLINATION    = 82.4989
RA_OF_ASC_NODE = 20.3344
ARG_OF_PERICENTER = 120.9833
MEAN_ANOMALY   = 239.3553

EPHEMERIS_TYPE = 0
CLASSIFICATION_TYPE = U
NORAD_CAT_ID   = 18153
ELEMENT_SET_NO = 999
REV_AT_EPOCH   = 6500
BSTAR          = .67285E-4
MEAN_MOTION_DOT = .609E-5
MEAN_MOTION_DDOT = 0

CCSDS_OMM_VERS = 2.0
CREATION_DATE  = 
ORIGINATOR     = 

OBJECT_NAME    = COSMOS 1867
OBJECT_ID      = 1987-060A
CENTER_NAME    = EARTH
REF_FRAME      = TEME
TIME_SYSTEM    = UTC
MEAN_ELEMENT_THEORY = SGP/SGP4

EPOCH          = 2026-02-04T09:31:14.085984
MEAN_MOTION    = 14.31497418
ECCENTRICITY   = .0014067
INCLINATION    = 65.0106
RA_OF_ASC_NODE = 39.9392
ARG_OF_PERICENTER = 276.1319
MEAN_ANOMALY   = 83.8163

EPHEMERIS_TYPE = 0
CLASSIFICATION_TYPE = U
NORAD_CAT_ID   = 18187
ELEMENT_SET_NO = 999
REV_AT_EPOCH   = 1517
BSTAR          = .25657E-4
MEAN_MOTION_DOT = -.32E-6
MEAN_MOTION_DDOT = 0

CCSDS_OMM_VERS = 2.0
CREATION_DATE  = 
ORIGINATOR     = 

OBJECT_NAME    = SL-14 R/B
OBJECT_ID      = 1988-001B
CENTER_NAME    = EARTH
REF_FRAME      = TEME
TIME_SYSTEM    = UTC
MEAN_ELEMENT_THEORY = SGP/SGP4

EPOCH          = 2026-02-04T12:47:09.605184
MEAN_MOTION    = 14.85487612
ECCENTRICITY   = .0017856
INCLINATION    = 82.5105
RA_OF_ASC_NODE = 226.5478
ARG_OF_PERICENTER = 352.9349
MEAN_ANOMALY   = 7.1612

EPHEMERIS_TYPE = 0
CLASSIFICATION_TYPE = U
NORAD_CAT_ID   = 18749
ELEMENT_SET_NO = 999
REV_AT_EPOCH   = 3710
BSTAR          = .60197E-4
MEAN_MOTION_DOT = .545E-5
MEAN_MOTION_DDOT = 0

