SL-14 R/B               
1 16792U 86046B   26035.26421036  .00000557  00000+0  61413-4 0  9994
2 16792  82.4821 111.7678 0022569 342.1883  17.8540 14.85557086121442
SL-14 R/B               
1 16882U 86055B   26035.39509788  .00000661  00000+0  73348-4 0  9995
2 16882  82.5230 157.9572 0020406  83.1223 335.4254 14.85605839114421
AJISAI (EGS)            
1 16908U 86061A   26035.46232576 -.00000111  00000+0 -96830-4 0  9990
2 16908  50.0065 195.5215 0011246 201.4478 200.5780 12.44515318463863
COSMOS 1812             
1 17295U 87003A   26035.53345799  .00252912  22575-4  74281-3 0  9994
2 17295  82.4771 233.1409 0000862 339.7896  20.3343 15.92641320139166
SL-14 R/B               
1 17567U 87024B   26035.30979876  .00000597  00000+0  65184-4 0  9990
2 17567  82.5296 124.1346 0018581  16.0876 344.0926 14.86098917 83172
COSMOS 1833             
1 17589U 87027A   26035.44762434  .00000093  00000+0  75148-4 0  9994
2 17589  70.9207  35.8820 0024835 258.8861 100.9468 14.13055416  5624
SL-16 R/B               
1 17590U 87027B   26035.30579785 -.00000002  00000+0  22583-4 0  9992
2 17590  71.0049 346.8407 0005334 199.0594 161.0331 14.17163746 10612
SL-14 R/B               
1 17912U 87038B   26035.28755969  .00000683  00000+0  76527-4 0  9990
2 17912  82.5043 328.2652 0017692 275.8959  84.0240 14.85334473 74272
COSMOS 1844             
1 17973U 87041A   26035.51793877  .00000274  00000+0  16742-3 0  9995
2 17973  70.8980 104.1469 0028747  71.2653 289.1584 14.14537140998898
SL-14 R/B               
1 18153U 87055B   26035.47235520  .00000609  00000+0  67285-4 0  9993
2 18153  82.4989  20.3344 0022053 120.9833 239.3553 14.85587135 65002
COSMOS 1867             
1 18187U 87060A   26035.39669081 -.00000032  00000+0  25657-4 0  9998
2 18187  65.0106  39.9392 0014067 276.1319  83.8163 14.31497418 15172
SL-14 R/B               
1 18749U 88001B   26035.53275006  .00000545  00000+0  60197-4 0  9990
2 18749  82.5105 226.5478 0017856 352.9349   7.1612 14.85487612 37102
